ARIANE 40 R/B           
1 20443U 90005H   25328.67051316  .00000364  00000+0  12954-3 0  9992
2 20443  98.3267  27.3572 0010726 155.2367 204.9339 14.39778287877694
DELTA 2 R/B(1)          
1 20453U 90008B   25328.77846279  .00036811  00000+0  62114-3 0  9996
2 20453  35.6049 136.3570 0114648  14.0640 346.3244 15.43475177909858
COSMOS 2058             
1 20465U 90010A   25328.60492634  .00004238  00000+0  25728-3 0  9994
2 20465  82.4629 150.8715 0009506 346.3143  13.7827 15.10240777926370
SL-14 R/B               
1 20466U 90010B   25328.53348441  .00000506  00000+0  58599-4 0  9990
2 20466  82.5033   6.1463 0018321 287.7872  72.1343 14.83446829912895
SL-14 R/B               
1 20511U 90018B   25328.72029970  .00000526  00000+0  63095-4 0  9992
2 20511  82.5198 321.2090 0017968  78.6738 281.6494 14.82019420907035
HST                     
1 20580U 90037B   25328.50263794  .00008200  00000+0  28642-3 0  9994
2 20580  28.4700  36.5817 0001941  49.2453 310.8310 15.27685337757204
SL-16 R/B               
1 20625U 90046B   25328.78999669  .00000203  00000+0  12939-3 0  9998
2 20625  70.9961 158.2174 0012247 106.7763 253.4704 14.14991409833554
COSMOS 2084             
1 20663U 90055A   25328.42819544  .00002924  00000+0  21757-3 0  9994
2 20663  62.7911 334.3795 0034596 172.4351 187.7278 15.04853262920477
SL-6 R/B(2)             
1 20666U 90055D   25328.20516412  .00002810  00000+0  22235-3 0  9997
2 20666  62.7833 252.3858 0011214 294.0393  65.9532 15.02950380922335
SL-8 R/B                
1 20775U 90078B   25328.74532248  .00025295  00000+0  78286-3 0  9996
2 20775  82.9053 345.4034 0377755   6.2744 354.3006 14.84843147793701
SL-8 R/B                
1 21088U 91006B   25328.73713610  .00000118  00000+0  10332-3 0  9994
2 21088  82.9428 248.1026 0021965 332.8746  89.6455 13.77486866749624
OKEAN-3                 
1 21397U 91039A   25328.71908630  .00004566  00000+0  32849-3 0  9997
2 21397  82.5173  78.4856 0013976 332.6878  27.3611 15.03939204849255
