CCSDS_OMM_VERS = 2.0
CREATION_DATE  = 
ORIGINATOR     = 

OBJECT_NAME    = ARIANE 40 R/B
OBJECT_ID      = 1990-005H
CENTER_NAME    = EARTH
REF_FRAME      = TEME
TIME_SYSTEM    = UTC
MEAN_ELEMENT_THEORY = SGP/SGP4

EPOCH          = 2025-11-24T16:05:32.337024
MEAN_MOTION    = 14.39778287
ECCENTRICITY   = .0010726
INCLINATION    = 98.3267
RA_OF_ASC_NODE = 27.3572
ARG_OF_PERICENTER = 155.2367
MEAN_ANOMALY   = 204.9339

EPHEMERIS_TYPE = 0
CLASSIFICATION_TYPE = U
NORAD_CAT_ID   = 20443
ELEMENT_SET_NO = 999
REV_AT_EPOCH   = 87769
BSTAR          = .12954E-3
MEAN_MOTION_DOT = .364E-5
MEAN_MOTION_DDOT = 0

CCSDS_OMM_VERS = 2.0
CREATION_DATE  = 
ORIGINATOR     = 

OBJECT_NAME    = DELTA 2 R/B(1)
OBJECT_ID      = 1990-008B
CENTER_NAME    = EARTH
REF_FRAME      = TEME
TIME_SYSTEM    = UTC
MEAN_ELEMENT_THEORY = SGP/SGP4

EPOCH          = 2025-11-24T18:40:59.185056
MEAN_MOTION    = 15.43475177
ECCENTRICITY   = .0114648
INCLINATION    = 35.6049
RA_OF_ASC_NODE = 136.3570
ARG_OF_PERICENTER = 14.0640
MEAN_ANOMALY   = 346.3244

EPHEMERIS_TYPE = 0
CLASSIFICATION_TYPE = U
NORAD_CAT_ID   = 20453
ELEMENT_SET_NO = 999
REV_AT_EPOCH   = 90985
BSTAR          = .62114E-3
MEAN_MOTION_DOT = .36811E-3
MEAN_MOTION_DDOT = 0

CCSDS_OMM_VERS = 2.0
CREATION_DATE  = 
ORIGINATOR     = 

OBJECT_NAME    = COSMOS 2058
OBJECT_ID      = 1990-010A
CENTER_NAME    = EARTH
REF_FRAME      = TEME
TIME_SYSTEM    = UTC
MEAN_ELEMENT_THEORY = SGP/SGP4

EPOCH          = 2025-11-24T14:31:05.635776
MEAN_MOTION    = 15.10240777
ECCENTRICITY   = .0009506
INCLINATION    = 82.4629
RA_OF_ASC_NODE = 150.8715
ARG_OF_PERICENTER = 346.3143
MEAN_ANOMALY   = 13.7827

EPHEMERIS_TYPE = 0
CLASSIFICATION_TYPE = U
NORAD_CAT_ID   = 20465
ELEMENT_SET_NO = 999
REV_AT_EPOCH   = 92637
BSTAR          = .25728E-3
MEAN_MOTION_DOT = .4238E-4
MEAN_MOTION_DDOT = 0

CCSDS_OMM_VERS = 2.0
CREATION_DATE  = 
ORIGINATOR     = 

OBJECT_NAME    = SL-14 R/B
OBJECT_ID      = 1990-010B
CENTER_NAME    = EARTH
REF_FRAME      = TEME
TIME_SYSTEM    = UTC
MEAN_ELEMENT_THEORY = SGP/SGP4

EPOCH          = 2025-11-24T12:48:13.053024
MEAN_MOTION    = 14.83446829
ECCENTRICITY   = .0018321
INCLINATION    = 82.5033
RA_OF_ASC_NODE = 6.1463
ARG_OF_PERICENTER = 287.7872
MEAN_ANOMALY   = 72.1343

EPHEMERIS_TYPE = 0
CLASSIFICATION_TYPE = U
NORAD_CAT_ID   = 20466
ELEMENT_SET_NO = 999
REV_AT_EPOCH   = 91289
BSTAR          = .58599E-4
MEAN_MOTION_DOT = .506E-5
MEAN_MOTION_DDOT = 0

CCSDS_OMM_VERS = 2.0
CREATION_DATE  = 
ORIGINATOR     = 

OBJECT_NAME    = SL-14 R/B
OBJECT_ID      = 1990-018B
CENTER_NAME    = EARTH
REF_FRAME      = TEME
TIME_SYSTEM    = UTC
MEAN_ELEMENT_THEORY = SGP/SGP4

EPOCH          = 2025-11-24T17:17:13.894080
MEAN_MOTION    = 14.82019420
ECCENTRICITY   = .0017968
INCLINATION    = 82.5198
RA_OF_ASC_NODE = 321.2090
ARG_OF_PERICENTER = 78.6738
MEAN_ANOMALY   = 281.6494

EPHEMERIS_TYPE = 0
CLASSIFICATION_TYPE = U
NORAD_CAT_ID   = 20511
ELEMENT_SET_NO = 999
REV_AT_EPOCH   = 90703
BSTAR          = .63095E-4
MEAN_MOTION_DOT = .526E-5
MEAN_MOTION_DDOT = 0

CCSDS_OMM_VERS = 2.0
CREATION_DATE  = 
ORIGINATOR     = 

OBJECT_NAME    = HST
OBJECT_ID      = 1990-037B
CENTER_NAME    = EARTH
REF_FRAME      = TEME
TIME_SYSTEM    = UTC
MEAN_ELEMENT_THEORY = SGP/SGP4

EPOCH          = 2025-11-24T12:03:47.918016
MEAN_MOTION    = 15.27685337
ECCENTRICITY   = .0001941
INCLINATION    = 28.4700
RA_OF_ASC_NODE = 36.5817
ARG_OF_PERICENTER = 49.2453
MEAN_ANOMALY   = 310.8310

EPHEMERIS_TYPE = 0
CLASSIFICATION_TYPE = U
NORAD_CAT_ID   = 20580
ELEMENT_SET_NO = 999
REV_AT_EPOCH   = 75720
BSTAR          = .28642E-3
MEAN_MOTION_DOT = .82E-4
MEAN_MOTION_DDOT = 0

CCSDS_OMM_VERS = 2.0
CREATION_DATE  = 
ORIGINATOR     = 

OBJECT_NAME    = SL-16 R/B
OBJECT_ID      = 1990-046B
CENTER_NAME    = EARTH
REF_FRAME      = TEME
TIME_SYSTEM    = UTC
MEAN_ELEMENT_THEORY = SGP/SGP4

EPOCH          = 2025-11-24T18:57:35.714016
MEAN_MOTION    = 14.14991409
ECCENTRICITY   = .0012247
INCLINATION    = 70.9961
RA_OF_ASC_NODE = 158.2174
ARG_OF_PERICENTER = 106.7763
MEAN_ANOMALY   = 253.4704

EPHEMERIS_TYPE = 0
CLASSIFICATION_TYPE = U
NORAD_CAT_ID   = 20625
ELEMENT_SET_NO = 999
REV_AT_EPOCH   = 83355
BSTAR          = .12939E-3
MEAN_MOTION_DOT = .203E-5
MEAN_MOTION_DDOT = 0

CCSDS_OMM_VERS = 2.0
CREATION_DATE  = 
ORIGINATOR     = 

OBJECT_NAME    = COSMOS 2084
OBJECT_ID      = 1990-055A
CENTER_NAME    = EARTH
REF_FRAME      = TEME
TIME_SYSTEM    = UTC
MEAN_ELEMENT_THEORY = SGP/SGP4

EPOCH          = 2025-11-24T10:16:36.086016
MEAN_MOTION    = 15.04853262
ECCENTRICITY   = .0034596
INCLINATION    = 62.7911
RA_OF_ASC_NODE = 334.3795
ARG_OF_PERICENTER = 172.4351
MEAN_ANOMALY   = 187.7278

EPHEMERIS_TYPE = 0
CLASSIFICATION_TYPE = U
NORAD_CAT_ID   = 20663
ELEMENT_SET_NO = 999
REV_AT_EPOCH   = 92047
BSTAR          = .21757E-3
MEAN_MOTION_DOT = .2924E-4
MEAN_MOTION_DDOT = 0

CCSDS_OMM_VERS = 2.0
CREATION_DATE  = 
ORIGINATOR     = 

OBJECT_NAME    = SL-6 R/B(2)
OBJECT_ID      = 1990-055D
CENTER_NAME    = EARTH
REF_FRAME      = TEME
TIME_SYSTEM    = UTC
MEAN_ELEMENT_THEORY = SGP/SGP4

EPOCH          = 2025-11-24T04:55:26.179968
MEAN_MOTION    = 15.02950380
ECCENTRICITY   = .00112142
INCLINATION    = 62.7833
RA_OF_ASC_NODE = 252.3858
ARG_OF_PERICENTER = 294.0393
MEAN_ANOMALY   = 65.9532

EPHEMERIS_TYPE = 0
CLASSIFICATION_TYPE = U
NORAD_CAT_ID   = 20666
ELEMENT_SET_NO = 999
REV_AT_EPOCH   = 92233
BSTAR          = .22235094E-3
MEAN_MOTION_DOT = .281E-4
MEAN_MOTION_DDOT = 0

CCSDS_OMM_VERS = 2.0
CREATION_DATE  = 
ORIGINATOR     = 

OBJECT_NAME    = SL-8 R/B
OBJECT_ID      = 1990-078B
CENTER_NAME    = EARTH
REF_FRAME      = TEME
TIME_SYSTEM    = UTC
MEAN_ELEMENT_THEORY = SGP/SGP4

EPOCH          = 2025-11-24T17:53:15.862272
MEAN_MOTION    = 14.84843147
ECCENTRICITY   = .0377755
INCLINATION    = 82.9053
RA_OF_ASC_NODE = 345.4034
ARG_OF_PERICENTER = 6.2744
MEAN_ANOMALY   = 354.3006

EPHEMERIS_TYPE = 0
CLASSIFICATION_TYPE = U
NORAD_CAT_ID   = 20775
ELEMENT_SET_NO = 999
REV_AT_EPOCH   = 79370
BSTAR          = .78286E-3
MEAN_MOTION_DOT = .25295E-3
MEAN_MOTION_DDOT = 0

CCSDS_OMM_VERS = 2.0
CREATION_DATE  = 
ORIGINATOR     = 

OBJECT_NAME    = SL-8 R/B
OBJECT_ID      = 1991-006B
CENTER_NAME    = EARTH
REF_FRAME      = TEME
TIME_SYSTEM    = UTC
MEAN_ELEMENT_THEORY = SGP/SGP4

EPOCH          = 2025-11-24T17:41:28.559040
MEAN_MOTION    = 13.77486866
ECCENTRICITY   = .0021965
INCLINATION    = 82.9428
RA_OF_ASC_NODE = 248.1026
ARG_OF_PERICENTER = 332.8746
MEAN_ANOMALY   = 89.6455

EPHEMERIS_TYPE = 0
CLASSIFICATION_TYPE = U
NORAD_CAT_ID   = 21088
ELEMENT_SET_NO = 999
REV_AT_EPOCH   = 74962
BSTAR          = .10332E-3
MEAN_MOTION_DOT = .118E-5
MEAN_MOTION_DDOT = 0

CCSDS_OMM_VERS = 2.0
CREATION_DATE  = 
ORIGINATOR     = 

OBJECT_NAME    = OKEAN-3
OBJECT_ID      = 1991-039A
CENTER_NAME    = EARTH
REF_FRAME      = TEME
TIME_SYSTEM    = UTC
MEAN_ELEMENT_THEORY = SGP/SGP4

EPOCH          = 2025-11-24T17:15:29.056320
MEAN_MOTION    = 15.03939204
ECCENTRICITY   = .0013976
INCLINATION    = 82.5173
RA_OF_ASC_NODE = 78.4856
ARG_OF_PERICENTER = 332.6878
MEAN_ANOMALY   = 27.3611

EPHEMERIS_TYPE = 0
CLASSIFICATION_TYPE = U
NORAD_CAT_ID   = 21397
ELEMENT_SET_NO = 999
REV_AT_EPOCH   = 84925
BSTAR          = .32849E-3
MEAN_MOTION_DOT = .4566E-4
MEAN_MOTION_DDOT = 0

